NORAD_CAT_ID,OBJECT_NAME,OBJECT_TYPE,EPOCH,MEAN_MOTION,ECCENTRICITY,INCLINATION,RA_OF_ASC_NODE,ARG_OF_PERICENTER,MEAN_ANOMALY,BSTAR,MEAN_MOTION_DOT,MEAN_MOTION_DDOT,TLE_LINE0,TLE_LINE1,TLE_LINE2,SEMIMAJOR_AXIS,PERIOD,APOGEE,PERIGEE,DECAYED
54011.0,STARLINK-5124,PAYLOAD,2023-12-09 03:11:41,15.08863952,0.0001779,53.2168,292.3901,110.6522,249.4661,0.00072594,0.00011292,0.0,0 STARLINK-5124,1 54011U 22125AZ  23343.13312234  .00011292  00000-0  72594-3 0  9992,2 54011  53.2168 292.3901 0001779 110.6522 249.4661 15.08863952 65623,6917.807,95.436,540.903,538.442,0.0
54011.0,STARLINK-5124,PAYLOAD,2023-12-09 20:40:56,15.08850233,0.0001609,53.2165,289.1159,90.5381,269.5795,0.00024862,3.672e-05,0.0,0 STARLINK-5124,1 54011U 22125AZ  23343.86176438  .00003672  00000-0  24862-3 0  9994,2 54011  53.2165 289.1159 0001609  90.5381 269.5795 15.08850233 65731,6917.849,95.437,540.827,538.601,0.0
54011.0,STARLINK-5124,PAYLOAD,2023-12-10 06:13:14,15.08851967,0.0001575,53.2167,287.3305,91.6913,268.426,0.00021464,3.131e-05,0.0,0 STARLINK-5124,1 54011U 22125AZ  23344.25920124  .00003131  00000-0  21464-3 0  9992,2 54011  53.2167 287.3305 0001575  91.6913 268.4260 15.08851967 65742,6917.844,95.437,540.798,538.619,0.0
54011.0,STARLINK-5124,PAYLOAD,2023-12-11 02:53:15,15.08843639,0.0001683,53.2172,283.4621,88.7244,271.3941,-5.5044e-05,-1.164e-05,0.0,0 STARLINK-5124,1 54011U 22125AZ  23345.12032099 -.00001164  00000-0 -55044-4 0  9992,2 54011  53.2172 283.4621 0001683  88.7244 271.3941 15.08843639 65926,6917.869,95.437,540.899,538.57,0.0
54011.0,STARLINK-5124,PAYLOAD,2023-12-12 01:08:39,15.08845616,0.0001752,53.2174,279.2948,97.7315,262.3876,0.0001201,1.624e-05,0.0,0 STARLINK-5124,1 54011U 22125AZ  23346.04768076  .00001624  00000-0  12010-3 0  9999,2 54011  53.2174 279.2948 0001752  97.7315 262.3876 15.08845616 66014,6917.863,95.437,540.94,538.516,0.0
54011.0,STARLINK-5124,PAYLOAD,2023-12-13 00:59:28,15.08807729,0.0001569,53.2177,274.8407,82.4115,277.7056,-0.00033165,-5.558e-05,0.0,0 STARLINK-5124,1 54011U 22125AZ  23347.04130562 -.00005558  00000-0 -33165-3 0  9999,2 54011  53.2177 274.8407 0001569  82.4115 277.7056 15.08807729 66218,6917.979,95.44,540.929,538.759,0.0
54011.0,STARLINK-5124,PAYLOAD,2023-12-14 02:25:37,15.08853591,0.0001884,53.2184,270.0833,71.824,288.2957,0.00028254,4.213e-05,0.0,0 STARLINK-5124,1 54011U 22125AZ  23348.10112678  .00004213  00000-0  28254-3 0  9993,2 54011  53.2184 270.0833 0001884  71.8240 288.2957 15.08853591 66370,6917.839,95.437,541.007,538.401,0.0
54011.0,STARLINK-5124,PAYLOAD,2023-12-14 15:08:42,15.08848083,0.0001683,53.2174,267.7046,122.5886,237.5269,0.00063809,9.884e-05,0.0,0 STARLINK-5124,1 54011U 22125AZ  23348.63105235  .00009884  00000-0  63809-3 0  9996,2 54011  53.2174 267.7046 0001683 122.5886 237.5269 15.08848083 66457,6917.856,95.437,540.885,538.556,0.0
54011.0,STARLINK-5124,PAYLOAD,2023-12-15 02:16:24,15.08841966,0.0001688,53.2165,265.6192,125.3877,234.7273,0.00038355,5.822e-05,0.0,0 STARLINK-5124,1 54011U 22125AZ  23349.09472970  .00005822  00000-0  38355-3 0  9996,2 54011  53.2165 265.6192 0001688 125.3877 234.7273 15.08841966 66527,6917.874,95.437,540.907,538.572,0.0
54011.0,STARLINK-5124,PAYLOAD,2023-12-15 22:56:25,15.08845523,0.0001453,53.2175,261.7591,82.5671,277.5486,-9.134e-05,-1.742e-05,0.0,0 STARLINK-5124,1 54011U 22125AZ  23349.95585274 -.00001742  00000-0 -91340-4 0  9996,2 54011  53.2175 261.7591 0001453  82.5671 277.5486 15.08845523 66607,6917.864,95.437,540.734,538.723,0.0
54011.0,STARLINK-5124,PAYLOAD,2023-12-16 00:31:48,15.08845754,0.0001466,53.2176,261.462,92.1342,267.9818,-9.4546e-05,-1.793e-05,0.0,0 STARLINK-5124,1 54011U 22125AZ  23350.02209178 -.00001793  00000-0 -94546-4 0  9999,2 54011  53.2176 261.4620 0001466  92.1342 267.9818 15.08845754 66668,6917.863,95.437,540.742,538.714,0.0
54011.0,STARLINK-5124,PAYLOAD,2023-12-16 21:11:48,15.08846436,0.0001431,53.2176,257.5932,89.1132,271.0024,7.011e-05,8.28e-06,0.0,0 STARLINK-5124,1 54011U 22125AZ  23350.88320298  .00000828  00000-0  70110-4 0  9997,2 54011  53.2176 257.5932 0001431  89.1132 271.0024 15.08846436 66747,6917.861,95.437,540.716,538.736,0.0
54011.0,STARLINK-5124,PAYLOAD,2023-12-17 00:22:34,15.08851984,0.0001371,53.2169,256.9984,99.5625,260.5523,0.00011825,1.595e-05,0.0,0 STARLINK-5124,1 54011U 22125AZ  23351.01567729  .00001595  00000-0  11825-3 0  9994,2 54011  53.2169 256.9984 0001371  99.5625 260.5523 15.08851984 66813,6917.844,95.437,540.657,538.76,0.0
54011.0,STARLINK-5124,PAYLOAD,2023-12-17 22:37:58,15.08847871,0.0001529,53.2167,252.8332,104.9599,255.1562,0.00015962,2.254e-05,0.0,0 STARLINK-5124,1 54011U 22125AZ  23351.94304167  .00002254  00000-0  15962-3 0  9990,2 54011  53.2167 252.8332 0001529 104.9599 255.1562 15.08847871 66902,6917.856,95.437,540.779,538.664,0.0
54011.0,STARLINK-5124,PAYLOAD,2023-12-18 00:13:22,15.08846643,0.0001419,53.216,252.537,84.264,275.8514,0.0001639,2.322e-05,0.0,0 STARLINK-5124,1 54011U 22125AZ  23352.00928326  .00002322  00000-0  16390-3 0  9999,2 54011  53.2160 252.5370 0001419  84.2640 275.8514 15.08846643 66967,6917.86,95.437,540.707,538.743,0.0
54011.0,STARLINK-5124,PAYLOAD,2023-12-18 22:28:46,15.08835297,0.0001486,53.2152,248.3811,71.1005,289.0148,-8.5686e-05,-1.651e-05,0.0,0 STARLINK-5124,1 54011U 22125AZ  23352.93665193 -.00001651  00000-0 -85686-4 0  9992,2 54011  53.2152 248.3811 0001486  71.1005 289.0148 15.08835297 67059,6917.895,95.438,540.788,538.732,0.0
54011.0,STARLINK-5124,PAYLOAD,2023-12-19 23:54:56,15.08840264,0.0001509,53.2165,243.6164,107.0718,253.044,4.4732e-05,4.24e-06,0.0,0 STARLINK-5124,1 54011U 22125AZ  23353.99649056  .00000424  00000-0  44732-4 0  9991,2 54011  53.2165 243.6164 0001509 107.0718 253.0440 15.08840264 67267,6917.88,95.438,540.788,538.701,0.0
54011.0,STARLINK-5124,PAYLOAD,2023-12-20 22:10:20,15.08842365,0.0001534,53.2161,239.453,106.8088,253.3073,0.00020977,3.052e-05,0.0,0 STARLINK-5124,1 54011U 22125AZ  23354.92385167  .00003052  00000-0  20977-3 0  9999,2 54011  53.2161 239.4530 0001534 106.8088 253.3073 15.08842365 67357,6917.873,95.437,540.799,538.677,0.0
54011.0,STARLINK-5124,PAYLOAD,2023-12-20 23:45:43,15.08844063,0.0001544,53.2164,239.1568,107.1211,252.9951,0.00022956,3.368e-05,0.0,0 STARLINK-5124,1 54011U 22125AZ  23354.99009101  .00003368  00000-0  22956-3 0  9996,2 54011  53.2164 239.1568 0001544 107.1211 252.9951 15.08844063 67369,6917.868,95.437,540.801,538.665,0.0
54011.0,STARLINK-5124,PAYLOAD,2023-12-21 22:01:08,15.08837837,0.0001566,53.2159,234.9916,102.1698,257.947,4.2575e-05,3.9e-06,0.0,0 STARLINK-5124,1 54011U 22125AZ  23355.91745737  .00000390  00000-0  42575-4 0  9993,2 54011  53.2159 234.9916 0001566 102.1698 257.9470 15.08837837 67509,6917.887,95.438,540.835,538.669,0.0
54011.0,STARLINK-5124,PAYLOAD,2023-12-21 23:36:31,15.08838484,0.0001539,53.2159,234.6934,93.7338,266.383,5.3034e-05,5.56e-06,0.0,0 STARLINK-5124,1 54011U 22125AZ  23355.98369768  .00000556  00000-0  53034-4 0  9992,2 54011  53.2159 234.6934 0001539  93.7338 266.3830 15.08838484 67561,6917.885,95.438,540.815,538.685,0.0
54011.0,STARLINK-5124,PAYLOAD,2023-12-22 21:51:55,15.08849255,0.0001501,53.2149,230.5304,90.4228,269.6936,0.00026409,3.919e-05,0.0,0 STARLINK-5124,1 54011U 22125AZ  23356.91105395  .00003919  00000-0  26409-3 0  9991,2 54011  53.2149 230.5304 0001501  90.4228 269.6936 15.08849255 67658,6917.852,95.437,540.755,538.679,0.0
54011.0,STARLINK-5124,PAYLOAD,2023-12-22 23:27:18,15.08851113,0.0001639,53.2158,230.2398,88.3399,271.7781,0.00031922,4.798e-05,0.0,0 STARLINK-5124,1 54011U 22125AZ  23356.97729464  .00004798  00000-0  31922-3 0  9998,2 54011  53.2158 230.2398 0001639  88.3399 271.7781 15.08851113 67710,6917.846,95.437,540.845,538.578,0.0
54011.0,STARLINK-5124,PAYLOAD,2023-12-23 20:07:19,15.08842894,0.00017,53.216,226.3712,107.093,253.0249,0.00014111,1.959e-05,0.0,0 STARLINK-5124,1 54011U 22125AZ  23357.83841695  .00001959  00000-0  14111-3 0  9992,2 54011  53.2160 226.3712 0001700 107.0930 253.0249 15.08842894 67840,6917.872,95.437,540.913,538.561,0.0
54011.0,STARLINK-5124,PAYLOAD,2023-12-23 21:42:42,15.08855251,0.0002075,53.2161,226.0674,124.7751,235.3437,0.0003787,5.747e-05,0.0,0 STARLINK-5124,1 54011U 22125AZ  23357.90465310  .00005747  00000-0  37870-3 0  9992,2 54011  53.2161 226.0674 0002075 124.7751 235.3437 15.08855251 67807,6917.834,95.437,541.134,538.263,0.0
54011.0,STARLINK-5124,PAYLOAD,2023-12-24 00:53:28,15.08861759,0.0001876,53.2159,225.4712,124.0692,236.0479,0.00050337,7.737e-05,0.0,0 STARLINK-5124,1 54011U 22125AZ  23358.03713004  .00007737  00000-0  50337-3 0  9997,2 54011  53.2159 225.4712 0001876 124.0692 236.0479 15.08861759 67876,6917.814,95.436,540.977,538.381,0.0
54011.0,STARLINK-5124,PAYLOAD,2023-12-24 15:11:56,15.08844952,0.0001231,53.2158,222.8022,94.4923,265.6209,0.00010504,1.384e-05,0.0,0 STARLINK-5124,1 54011U 22125AZ  23358.63329269  .00001384  00000-0  10504-3 0  9993,2 54011  53.2158 222.8022 0001231  94.4923 265.6209 15.08844952 67912,6917.865,95.437,540.582,538.879,0.0
54011.0,STARLINK-5124,PAYLOAD,2023-12-24 19:58:05,15.08848968,0.0001559,53.2162,221.9098,100.1642,259.9526,0.0001485,2.077e-05,0.0,0 STARLINK-5124,1 54011U 22125AZ  23358.83201119  .00002077  00000-0  14850-3 0  9996,2 54011  53.2162 221.9098 0001559 100.1642 259.9526 15.08848968 67993,6917.853,95.437,540.796,538.639,0.0
54011.0,STARLINK-5124,PAYLOAD,2023-12-24 21:33:28,15.08849444,0.000156,53.2159,221.6122,102.0029,258.1138,0.00016339,2.314e-05,0.0,0 STARLINK-5124,1 54011U 22125AZ  23358.89825080  .00002314  00000-0  16339-3 0  9999,2 54011  53.2159 221.6122 0001560 102.0029 258.1138 15.08849444 67952,6917.852,95.437,540.796,538.637,0.0
54011.0,STARLINK-5124,PAYLOAD,2023-12-25 00:44:15,15.0885138,0.0001497,53.2156,221.017,104.5863,255.5295,0.00021423,3.124e-05,0.0,0 STARLINK-5124,1 54011U 22125AZ  23359.03072952  .00003124  00000-0  21423-3 0  9998,2 54011  53.2156 221.0170 0001497 104.5863 255.5295 15.08851380 67977,6917.846,95.437,540.746,538.675,0.0
